[
  {
    "postalCode": "520261",
    "location": "Abak Rd.",
    "areadistrict": "Iboko",
    "citylga": "Uyo",
    "type": "Urban",
    "state": "Akwa Ibom"
  },
  {
    "postalCode": "520103",
    "location": "Afaha Idoro",
    "areadistrict": "Oku",
    "citylga": "Uyo",
    "type": "Rural",
    "state": "Akwa Ibom"
  },
  {
    "postalCode": "520101",
    "location": "Afaha Offot",
    "areadistrict": "Offot",
    "citylga": "Uyo",
    "type": "Rural",
    "state": "Akwa Ibom"
  },
  {
    "postalCode": "520103",
    "location": "Afaha Oku",
    "areadistrict": "Oku",
    "citylga": "Uyo",
    "type": "Rural",
    "state": "Akwa Ibom"
  },
  {
    "postalCode": "520221",
    "location": "Affau St.",
    "areadistrict": "Catholic Secretary",
    "citylga": "Uyo",
    "type": "Urban",
    "state": "Akwa Ibom"
  },
  {
    "postalCode": "520101",
    "location": "Aka Offot",
    "areadistrict": "Offot",
    "citylga": "Uyo",
    "type": "Rural",
    "state": "Akwa Ibom"
  },
  {
    "postalCode": "520241",
    "location": "Aka Rd.",
    "areadistrict": "Itiam Ikot Abia",
    "citylga": "Uyo",
    "type": "Urban",
    "state": "Akwa Ibom"
  },
  {
    "postalCode": "520241",
    "location": "Ake Itiam Rd.",
    "areadistrict": "Itiam Ikot Abia",
    "citylga": "Uyo",
    "type": "Urban",
    "state": "Akwa Ibom"
  },
  {
    "postalCode": "520221",
    "location": "Akpabio Books Rd.",
    "areadistrict": "Catholic Secretary",
    "citylga": "Uyo",
    "type": "Urban",
    "state": "Akwa Ibom"
  },
  {
    "postalCode": "520251",
    "location": "Akpan",
    "areadistrict": "Uyo Market",
    "citylga": "Uyo",
    "type": "Urban",
    "state": "Akwa Ibom"
  },
  {
    "postalCode": "520231",
    "location": "Akpan Efuk St.",
    "areadistrict": "Housing Estate Ewet",
    "citylga": "Uyo",
    "type": "Urban",
    "state": "Akwa Ibom"
  },
  {
    "postalCode": "520261",
    "location": "Akpan Essien Rd.",
    "areadistrict": "Iboko",
    "citylga": "Uyo",
    "type": "Urban",
    "state": "Akwa Ibom"
  },
  {
    "postalCode": "520271",
    "location": "Akpan Idiok St.",
    "areadistrict": "School Of Art and Science",
    "citylga": "Uyo",
    "type": "Urban",
    "state": "Akwa Ibom"
  },
  {
    "postalCode": "520222",
    "location": "Akpan St.",
    "areadistrict": "Akpan St.",
    "citylga": "Uyo",
    "type": "Urban",
    "state": "Akwa Ibom"
  },
  {
    "postalCode": "520221",
    "location": "Akpan St.",
    "areadistrict": "Catholic Secretary",
    "citylga": "Uyo",
    "type": "Urban",
    "state": "Akwa Ibom"
  },
  {
    "postalCode": "520261",
    "location": "Akpata St.",
    "areadistrict": "Iboko",
    "citylga": "Uyo",
    "type": "Urban",
    "state": "Akwa Ibom"
  },
  {
    "postalCode": "520104",
    "location": "Anan Ikono",
    "areadistrict": "Ikono",
    "citylga": "Uyo",
    "type": "Rural",
    "state": "Akwa Ibom"
  },
  {
    "postalCode": "520101",
    "location": "Annua Oboo",
    "areadistrict": "Offot",
    "citylga": "Uyo",
    "type": "Rural",
    "state": "Akwa Ibom"
  },
  {
    "postalCode": "520101",
    "location": "Anua Obio Offot",
    "areadistrict": "Offot",
    "citylga": "Uyo",
    "type": "Rural",
    "state": "Akwa Ibom"
  },
  {
    "postalCode": "520101",
    "location": "Anua Offot",
    "areadistrict": "Offot",
    "citylga": "Uyo",
    "type": "Rural",
    "state": "Akwa Ibom"
  },
  {
    "postalCode": "520211",
    "location": "Asutan St.",
    "areadistrict": "Faha Oku Akpon",
    "citylga": "Uyo",
    "type": "Urban",
    "state": "Akwa Ibom"
  },
  {
    "postalCode": "520241",
    "location": "Ata Inim St.",
    "areadistrict": "Itiam Ikot Abia",
    "citylga": "Uyo",
    "type": "Urban",
    "state": "Akwa Ibom"
  },
  {
    "postalCode": "520231",
    "location": "Atakpe St.",
    "areadistrict": "Housing Estate Ewet",
    "citylga": "Uyo",
    "type": "Urban",
    "state": "Akwa Ibom"
  },
  {
    "postalCode": "520101",
    "location": "Atan Offot",
    "areadistrict": "Offot",
    "citylga": "Uyo",
    "type": "Rural",
    "state": "Akwa Ibom"
  },
  {
    "postalCode": "520211",
    "location": "Barracks Rd.",
    "areadistrict": "Faha Oku Akpon",
    "citylga": "Uyo",
    "type": "Urban",
    "state": "Akwa Ibom"
  },
  {
    "postalCode": "520212",
    "location": "Barracks Rd.",
    "areadistrict": "Military Office Iba Oku",
    "citylga": "Uyo",
    "type": "Urban",
    "state": "Akwa Ibom"
  },
  {
    "postalCode": "520251",
    "location": "Chief Ekepnyong St.",
    "areadistrict": "Uyo Market",
    "citylga": "Uyo",
    "type": "Urban",
    "state": "Akwa Ibom"
  },
  {
    "postalCode": "520101",
    "location": "Effiat Offot",
    "areadistrict": "Offot",
    "citylga": "Uyo",
    "type": "Rural",
    "state": "Akwa Ibom"
  },
  {
    "postalCode": "520211",
    "location": "Effiong Udo Akpan St.",
    "areadistrict": "Faha Oku Akpon",
    "citylga": "Uyo",
    "type": "Urban",
    "state": "Akwa Ibom"
  },
  {
    "postalCode": "520211",
    "location": "Eka St.",
    "areadistrict": "Faha Oku Akpon",
    "citylga": "Uyo",
    "type": "Urban",
    "state": "Akwa Ibom"
  },
  {
    "postalCode": "520261",
    "location": "Eka St.",
    "areadistrict": "Iboko",
    "citylga": "Uyo",
    "type": "Urban",
    "state": "Akwa Ibom"
  },
  {
    "postalCode": "520271",
    "location": "Ekong Essian St.",
    "areadistrict": "School Of Art and Science",
    "citylga": "Uyo",
    "type": "Urban",
    "state": "Akwa Ibom"
  },
  {
    "postalCode": "520211",
    "location": "Ekong Utana St.",
    "areadistrict": "Faha Oku Akpon",
    "citylga": "Uyo",
    "type": "Urban",
    "state": "Akwa Ibom"
  },
  {
    "postalCode": "520221",
    "location": "Ekpeyong St.",
    "areadistrict": "Catholic Secretary",
    "citylga": "Uyo",
    "type": "Urban",
    "state": "Akwa Ibom"
  },
  {
    "postalCode": "520221",
    "location": "Ekpo Obot St.",
    "areadistrict": "Catholic Secretary",
    "citylga": "Uyo",
    "type": "Urban",
    "state": "Akwa Ibom"
  },
  {
    "postalCode": "520271",
    "location": "Ekpon Rd.",
    "areadistrict": "School Of Art and Science",
    "citylga": "Uyo",
    "type": "Urban",
    "state": "Akwa Ibom"
  },
  {
    "postalCode": "520261",
    "location": "Ekpong St.",
    "areadistrict": "Iboko",
    "citylga": "Uyo",
    "type": "Urban",
    "state": "Akwa Ibom"
  },
  {
    "postalCode": "520101",
    "location": "Ekpri Nsukara",
    "areadistrict": "Offot",
    "citylga": "Uyo",
    "type": "Rural",
    "state": "Akwa Ibom"
  },
  {
    "postalCode": "520101",
    "location": "Eniong Offot",
    "areadistrict": "Offot",
    "citylga": "Uyo",
    "type": "Rural",
    "state": "Akwa Ibom"
  },
  {
    "postalCode": "520251",
    "location": "Enoidem St.",
    "areadistrict": "Uyo Market",
    "citylga": "Uyo",
    "type": "Urban",
    "state": "Akwa Ibom"
  },
  {
    "postalCode": "520251",
    "location": "Etinan Rd.",
    "areadistrict": "Uyo Market",
    "citylga": "Uyo",
    "type": "Urban",
    "state": "Akwa Ibom"
  },
  {
    "postalCode": "520241",
    "location": "Etoi St.",
    "areadistrict": "Itiam Ikot Abia",
    "citylga": "Uyo",
    "type": "Urban",
    "state": "Akwa Ibom"
  },
  {
    "postalCode": "520251",
    "location": "Etok St.",
    "areadistrict": "Uyo Market",
    "citylga": "Uyo",
    "type": "Urban",
    "state": "Akwa Ibom"
  },
  {
    "postalCode": "520241",
    "location": "Etuk St.",
    "areadistrict": "Itiam Ikot Abia",
    "citylga": "Uyo",
    "type": "Urban",
    "state": "Akwa Ibom"
  },
  {
    "postalCode": "520101",
    "location": "Ewet Offot",
    "areadistrict": "Offot",
    "citylga": "Uyo",
    "type": "Rural",
    "state": "Akwa Ibom"
  },
  {
    "postalCode": "520232",
    "location": "Ewet St.",
    "areadistrict": "Ewet Village",
    "citylga": "Uyo",
    "type": "Urban",
    "state": "Akwa Ibom"
  },
  {
    "postalCode": "520231",
    "location": "Ewet St.",
    "areadistrict": "Housing Estate Ewet",
    "citylga": "Uyo",
    "type": "Urban",
    "state": "Akwa Ibom"
  },
  {
    "postalCode": "520261",
    "location": "Faith Rd.",
    "areadistrict": "Iboko",
    "citylga": "Uyo",
    "type": "Urban",
    "state": "Akwa Ibom"
  },
  {
    "postalCode": "520221",
    "location": "Gibbi St.",
    "areadistrict": "Catholic Secretary",
    "citylga": "Uyo",
    "type": "Urban",
    "state": "Akwa Ibom"
  },
  {
    "postalCode": "520001",
    "location": "GPO",
    "areadistrict": "",
    "citylga": "Uyo",
    "type": "Facility",
    "state": "Akwa Ibom"
  },
  {
    "postalCode": "520103",
    "location": "Iba Oku",
    "areadistrict": "Oku",
    "citylga": "Uyo",
    "type": "Rural",
    "state": "Akwa Ibom"
  },
  {
    "postalCode": "520101",
    "location": "Ibiaku Offot",
    "areadistrict": "Offot",
    "citylga": "Uyo",
    "type": "Rural",
    "state": "Akwa Ibom"
  },
  {
    "postalCode": "520101",
    "location": "Iboko",
    "areadistrict": "Offot",
    "citylga": "Uyo",
    "type": "Rural",
    "state": "Akwa Ibom"
  },
  {
    "postalCode": "520241",
    "location": "Idem St.",
    "areadistrict": "Itiam Ikot Abia",
    "citylga": "Uyo",
    "type": "Urban",
    "state": "Akwa Ibom"
  },
  {
    "postalCode": "520261",
    "location": "Idiam St.",
    "areadistrict": "Iboko",
    "citylga": "Uyo",
    "type": "Urban",
    "state": "Akwa Ibom"
  },
  {
    "postalCode": "520261",
    "location": "Idoro Ipo Abak Rd.",
    "areadistrict": "Iboko",
    "citylga": "Uyo",
    "type": "Urban",
    "state": "Akwa Ibom"
  },
  {
    "postalCode": "520102",
    "location": "Ifa Atai",
    "areadistrict": "Etoi",
    "citylga": "Uyo",
    "type": "Rural",
    "state": "Akwa Ibom"
  },
  {
    "postalCode": "520102",
    "location": "Ifa Ikot",
    "areadistrict": "Etoi",
    "citylga": "Uyo",
    "type": "Rural",
    "state": "Akwa Ibom"
  },
  {
    "postalCode": "520102",
    "location": "Ifa Ikot Abia Ntuen",
    "areadistrict": "Etoi",
    "citylga": "Uyo",
    "type": "Rural",
    "state": "Akwa Ibom"
  },
  {
    "postalCode": "520102",
    "location": "Ifa Ikot Akpan",
    "areadistrict": "Etoi",
    "citylga": "Uyo",
    "type": "Rural",
    "state": "Akwa Ibom"
  },
  {
    "postalCode": "520102",
    "location": "Ifa Ikot Akpan Abia",
    "areadistrict": "Etoi",
    "citylga": "Uyo",
    "type": "Rural",
    "state": "Akwa Ibom"
  },
  {
    "postalCode": "520102",
    "location": "Ifa Ikot Idang",
    "areadistrict": "Etoi",
    "citylga": "Uyo",
    "type": "Rural",
    "state": "Akwa Ibom"
  },
  {
    "postalCode": "520102",
    "location": "Ifa Ikot Obong",
    "areadistrict": "Etoi",
    "citylga": "Uyo",
    "type": "Rural",
    "state": "Akwa Ibom"
  },
  {
    "postalCode": "520102",
    "location": "Ifa Ikot Ubo",
    "areadistrict": "Etoi",
    "citylga": "Uyo",
    "type": "Rural",
    "state": "Akwa Ibom"
  },
  {
    "postalCode": "520102",
    "location": "Ifa Ikot-Akpabio",
    "areadistrict": "Etoi",
    "citylga": "Uyo",
    "type": "Rural",
    "state": "Akwa Ibom"
  },
  {
    "postalCode": "520102",
    "location": "Ifa Ikot-Okpon",
    "areadistrict": "Etoi",
    "citylga": "Uyo",
    "type": "Rural",
    "state": "Akwa Ibom"
  },
  {
    "postalCode": "520104",
    "location": "Ikot",
    "areadistrict": "Ikono",
    "citylga": "Uyo",
    "type": "Rural",
    "state": "Akwa Ibom"
  },
  {
    "postalCode": "520102",
    "location": "Ikot Abasi Nkpo",
    "areadistrict": "Etoi",
    "citylga": "Uyo",
    "type": "Rural",
    "state": "Akwa Ibom"
  },
  {
    "postalCode": "520103",
    "location": "Ikot Akpan Ediene",
    "areadistrict": "Oku",
    "citylga": "Uyo",
    "type": "Rural",
    "state": "Akwa Ibom"
  },
  {
    "postalCode": "520103",
    "location": "Ikot Akpan Oku",
    "areadistrict": "Oku",
    "citylga": "Uyo",
    "type": "Rural",
    "state": "Akwa Ibom"
  },
  {
    "postalCode": "520101",
    "location": "Ikot Anyang",
    "areadistrict": "Offot",
    "citylga": "Uyo",
    "type": "Rural",
    "state": "Akwa Ibom"
  },
  {
    "postalCode": "520104",
    "location": "Ikot Ayan",
    "areadistrict": "Ikono",
    "citylga": "Uyo",
    "type": "Rural",
    "state": "Akwa Ibom"
  },
  {
    "postalCode": "520103",
    "location": "Ikot Ebido",
    "areadistrict": "Oku",
    "citylga": "Uyo",
    "type": "Rural",
    "state": "Akwa Ibom"
  },
  {
    "postalCode": "520104",
    "location": "Ikot Ebo",
    "areadistrict": "Ikono",
    "citylga": "Uyo",
    "type": "Rural",
    "state": "Akwa Ibom"
  },
  {
    "postalCode": "520104",
    "location": "Ikot Eboro",
    "areadistrict": "Ikono",
    "citylga": "Uyo",
    "type": "Rural",
    "state": "Akwa Ibom"
  },
  {
    "postalCode": "520104",
    "location": "Ikot Edung",
    "areadistrict": "Ikono",
    "citylga": "Uyo",
    "type": "Rural",
    "state": "Akwa Ibom"
  },
  {
    "postalCode": "520101",
    "location": "Ikot Ekpe Offot",
    "areadistrict": "Offot",
    "citylga": "Uyo",
    "type": "Rural",
    "state": "Akwa Ibom"
  },
  {
    "postalCode": "520271",
    "location": "Ikot Ekpene Rd.",
    "areadistrict": "School Of Art and Science",
    "citylga": "Uyo",
    "type": "Urban",
    "state": "Akwa Ibom"
  },
  {
    "postalCode": "520261",
    "location": "Ikot Ekpene St.",
    "areadistrict": "Iboko",
    "citylga": "Uyo",
    "type": "Urban",
    "state": "Akwa Ibom"
  },
  {
    "postalCode": "520104",
    "location": "Ikot Ekpeyak",
    "areadistrict": "Ikono",
    "citylga": "Uyo",
    "type": "Rural",
    "state": "Akwa Ibom"
  },
  {
    "postalCode": "520104",
    "location": "Ikot Enyienge",
    "areadistrict": "Ikono",
    "citylga": "Uyo",
    "type": "Rural",
    "state": "Akwa Ibom"
  },
  {
    "postalCode": "520102",
    "location": "Ikot Inyang Idung",
    "areadistrict": "Etoi",
    "citylga": "Uyo",
    "type": "Rural",
    "state": "Akwa Ibom"
  },
  {
    "postalCode": "520104",
    "location": "Ikot Iton",
    "areadistrict": "Ikono",
    "citylga": "Uyo",
    "type": "Rural",
    "state": "Akwa Ibom"
  },
  {
    "postalCode": "520104",
    "location": "Ikot Mbong",
    "areadistrict": "Ikono",
    "citylga": "Uyo",
    "type": "Rural",
    "state": "Akwa Ibom"
  },
  {
    "postalCode": "520104",
    "location": "Ikot Nsung",
    "areadistrict": "Ikono",
    "citylga": "Uyo",
    "type": "Rural",
    "state": "Akwa Ibom"
  },
  {
    "postalCode": "520101",
    "location": "Ikot Ntueh Offot",
    "areadistrict": "Offot",
    "citylga": "Uyo",
    "type": "Rural",
    "state": "Akwa Ibom"
  },
  {
    "postalCode": "520103",
    "location": "Ikot Ntuen-Oku",
    "areadistrict": "Oku",
    "citylga": "Uyo",
    "type": "Rural",
    "state": "Akwa Ibom"
  },
  {
    "postalCode": "520104",
    "location": "Ikot Obio Mkpon",
    "areadistrict": "Ikono",
    "citylga": "Uyo",
    "type": "Rural",
    "state": "Akwa Ibom"
  },
  {
    "postalCode": "520104",
    "location": "Ikot Offiong",
    "areadistrict": "Ikono",
    "citylga": "Uyo",
    "type": "Rural",
    "state": "Akwa Ibom"
  },
  {
    "postalCode": "520104",
    "location": "Ikot Ofong",
    "areadistrict": "Ikono",
    "citylga": "Uyo",
    "type": "Rural",
    "state": "Akwa Ibom"
  },
  {
    "postalCode": "520103",
    "location": "Ikot Oku",
    "areadistrict": "Oku",
    "citylga": "Uyo",
    "type": "Rural",
    "state": "Akwa Ibom"
  },
  {
    "postalCode": "520101",
    "location": "Ikot Oku Ido Offot",
    "areadistrict": "Offot",
    "citylga": "Uyo",
    "type": "Rural",
    "state": "Akwa Ibom"
  },
  {
    "postalCode": "520104",
    "location": "Ikot Oku Ikono",
    "areadistrict": "Ikono",
    "citylga": "Uyo",
    "type": "Rural",
    "state": "Akwa Ibom"
  },
  {
    "postalCode": "520101",
    "location": "Ikot Okubo",
    "areadistrict": "Offot",
    "citylga": "Uyo",
    "type": "Rural",
    "state": "Akwa Ibom"
  },
  {
    "postalCode": "520103",
    "location": "Ikot Udoro",
    "areadistrict": "Oku",
    "citylga": "Uyo",
    "type": "Rural",
    "state": "Akwa Ibom"
  },
  {
    "postalCode": "520271",
    "location": "Ikpa Rd.",
    "areadistrict": "School Of Art and Science",
    "citylga": "Uyo",
    "type": "Urban",
    "state": "Akwa Ibom"
  },
  {
    "postalCode": "520241",
    "location": "Inim Etok Akpan St.",
    "areadistrict": "Itiam Ikot Abia",
    "citylga": "Uyo",
    "type": "Urban",
    "state": "Akwa Ibom"
  },
  {
    "postalCode": "520271",
    "location": "Itam Rd.",
    "areadistrict": "School Of Art and Science",
    "citylga": "Uyo",
    "type": "Urban",
    "state": "Akwa Ibom"
  },
  {
    "postalCode": "520102",
    "location": "Itiam Etoi",
    "areadistrict": "Etoi",
    "citylga": "Uyo",
    "type": "Rural",
    "state": "Akwa Ibom"
  },
  {
    "postalCode": "520251",
    "location": "Itiam Lane",
    "areadistrict": "Uyo Market",
    "citylga": "Uyo",
    "type": "Urban",
    "state": "Akwa Ibom"
  },
  {
    "postalCode": "520251",
    "location": "Itiam St.",
    "areadistrict": "Uyo Market",
    "citylga": "Uyo",
    "type": "Urban",
    "state": "Akwa Ibom"
  },
  {
    "postalCode": "520102",
    "location": "Itian Ikot Ebia",
    "areadistrict": "Etoi",
    "citylga": "Uyo",
    "type": "Rural",
    "state": "Akwa Ibom"
  },
  {
    "postalCode": "520241",
    "location": "Iwe St.",
    "areadistrict": "Itiam Ikot Abia",
    "citylga": "Uyo",
    "type": "Urban",
    "state": "Akwa Ibom"
  },
  {
    "postalCode": "520241",
    "location": "Johnston St.",
    "areadistrict": "Itiam Ikot Abia",
    "citylga": "Uyo",
    "type": "Urban",
    "state": "Akwa Ibom"
  },
  {
    "postalCode": "520251",
    "location": "Jubilee School Rd.",
    "areadistrict": "Uyo Market",
    "citylga": "Uyo",
    "type": "Urban",
    "state": "Akwa Ibom"
  },
  {
    "postalCode": "520102",
    "location": "Mbak Akpan Ekpenyong",
    "areadistrict": "Etoi",
    "citylga": "Uyo",
    "type": "Rural",
    "state": "Akwa Ibom"
  },
  {
    "postalCode": "520102",
    "location": "Mbak Ikot Abasi",
    "areadistrict": "Etoi",
    "citylga": "Uyo",
    "type": "Rural",
    "state": "Akwa Ibom"
  },
  {
    "postalCode": "520102",
    "location": "Mbak Ikot Ebo",
    "areadistrict": "Etoi",
    "citylga": "Uyo",
    "type": "Rural",
    "state": "Akwa Ibom"
  },
  {
    "postalCode": "520104",
    "location": "Mbiabong",
    "areadistrict": "Ikono",
    "citylga": "Uyo",
    "type": "Rural",
    "state": "Akwa Ibom"
  },
  {
    "postalCode": "520102",
    "location": "Mbiabong Anyanya",
    "areadistrict": "Etoi",
    "citylga": "Uyo",
    "type": "Rural",
    "state": "Akwa Ibom"
  },
  {
    "postalCode": "520102",
    "location": "Mbiabong Ikot Abasi",
    "areadistrict": "Etoi",
    "citylga": "Uyo",
    "type": "Rural",
    "state": "Akwa Ibom"
  },
  {
    "postalCode": "520102",
    "location": "Mbiabong Ikot-Antem",
    "areadistrict": "Etoi",
    "citylga": "Uyo",
    "type": "Rural",
    "state": "Akwa Ibom"
  },
  {
    "postalCode": "520102",
    "location": "Miabong Ikot",
    "areadistrict": "Etoi",
    "citylga": "Uyo",
    "type": "Rural",
    "state": "Akwa Ibom"
  },
  {
    "postalCode": "520104",
    "location": "Minya Ikono",
    "areadistrict": "Ikono",
    "citylga": "Uyo",
    "type": "Rural",
    "state": "Akwa Ibom"
  },
  {
    "postalCode": "520103",
    "location": "Nduetong Oku",
    "areadistrict": "Oku",
    "citylga": "Uyo",
    "type": "Rural",
    "state": "Akwa Ibom"
  },
  {
    "postalCode": "520251",
    "location": "Nsentip St.",
    "areadistrict": "Uyo Market",
    "citylga": "Uyo",
    "type": "Urban",
    "state": "Akwa Ibom"
  },
  {
    "postalCode": "520251",
    "location": "Nsit Lane",
    "areadistrict": "Uyo Market",
    "citylga": "Uyo",
    "type": "Urban",
    "state": "Akwa Ibom"
  },
  {
    "postalCode": "520101",
    "location": "Nsukara Offot",
    "areadistrict": "Offot",
    "citylga": "Uyo",
    "type": "Rural",
    "state": "Akwa Ibom"
  },
  {
    "postalCode": "520104",
    "location": "Nung Asang",
    "areadistrict": "Ikono",
    "citylga": "Uyo",
    "type": "Rural",
    "state": "Akwa Ibom"
  },
  {
    "postalCode": "520103",
    "location": "Nung Edong Ediene",
    "areadistrict": "Oku",
    "citylga": "Uyo",
    "type": "Rural",
    "state": "Akwa Ibom"
  },
  {
    "postalCode": "520103",
    "location": "Nung Obio Enang Idoro",
    "areadistrict": "Oku",
    "citylga": "Uyo",
    "type": "Rural",
    "state": "Akwa Ibom"
  },
  {
    "postalCode": "520103",
    "location": "Nung Udoe Ediene",
    "areadistrict": "Oku",
    "citylga": "Uyo",
    "type": "Rural",
    "state": "Akwa Ibom"
  },
  {
    "postalCode": "520104",
    "location": "Nung Ukim",
    "areadistrict": "Ikono",
    "citylga": "Uyo",
    "type": "Rural",
    "state": "Akwa Ibom"
  },
  {
    "postalCode": "520103",
    "location": "Nung Uyo Idoro",
    "areadistrict": "Oku",
    "citylga": "Uyo",
    "type": "Rural",
    "state": "Akwa Ibom"
  },
  {
    "postalCode": "520241",
    "location": "Nyong Essien St.",
    "areadistrict": "Itiam Ikot Abia",
    "citylga": "Uyo",
    "type": "Urban",
    "state": "Akwa Ibom"
  },
  {
    "postalCode": "520102",
    "location": "Obio Etoi",
    "areadistrict": "Etoi",
    "citylga": "Uyo",
    "type": "Rural",
    "state": "Akwa Ibom"
  },
  {
    "postalCode": "520241",
    "location": "Obio Imo St.",
    "areadistrict": "Itiam Ikot Abia",
    "citylga": "Uyo",
    "type": "Urban",
    "state": "Akwa Ibom"
  },
  {
    "postalCode": "520101",
    "location": "Obio Offot",
    "areadistrict": "Offot",
    "citylga": "Uyo",
    "type": "Rural",
    "state": "Akwa Ibom"
  },
  {
    "postalCode": "520102",
    "location": "Obot Obom Etoi",
    "areadistrict": "Etoi",
    "citylga": "Uyo",
    "type": "Rural",
    "state": "Akwa Ibom"
  },
  {
    "postalCode": "520251",
    "location": "Odosen Nkahia St.",
    "areadistrict": "Uyo Market",
    "citylga": "Uyo",
    "type": "Urban",
    "state": "Akwa Ibom"
  },
  {
    "postalCode": "520261",
    "location": "Oku St.",
    "areadistrict": "Iboko",
    "citylga": "Uyo",
    "type": "Urban",
    "state": "Akwa Ibom"
  },
  {
    "postalCode": "520212",
    "location": "Old Stadium Rd.",
    "areadistrict": "Military Office Iba Oku",
    "citylga": "Uyo",
    "type": "Urban",
    "state": "Akwa Ibom"
  },
  {
    "postalCode": "520241",
    "location": "Oniong St.",
    "areadistrict": "Itiam Ikot Abia",
    "citylga": "Uyo",
    "type": "Urban",
    "state": "Akwa Ibom"
  },
  {
    "postalCode": "520271",
    "location": "Onyong Udo St.",
    "areadistrict": "School Of Art and Science",
    "citylga": "Uyo",
    "type": "Urban",
    "state": "Akwa Ibom"
  },
  {
    "postalCode": "520231",
    "location": "Oron Rd.",
    "areadistrict": "Housing Estate Ewet",
    "citylga": "Uyo",
    "type": "Urban",
    "state": "Akwa Ibom"
  },
  {
    "postalCode": "520221",
    "location": "Paul Bassey St.",
    "areadistrict": "Catholic Secretary",
    "citylga": "Uyo",
    "type": "Urban",
    "state": "Akwa Ibom"
  },
  {
    "postalCode": "520241",
    "location": "Pauline St.",
    "areadistrict": "Itiam Ikot Abia",
    "citylga": "Uyo",
    "type": "Urban",
    "state": "Akwa Ibom"
  },
  {
    "postalCode": "520211",
    "location": "Plateau Rd.",
    "areadistrict": "Faha Oku Akpon",
    "citylga": "Uyo",
    "type": "Urban",
    "state": "Akwa Ibom"
  },
  {
    "postalCode": "520221",
    "location": "Plateau Rd.",
    "areadistrict": "Catholic Secretary",
    "citylga": "Uyo",
    "type": "Urban",
    "state": "Akwa Ibom"
  },
  {
    "postalCode": "520251",
    "location": "Port Harcourt St.",
    "areadistrict": "Uyo Market",
    "citylga": "Uyo",
    "type": "Urban",
    "state": "Akwa Ibom"
  },
  {
    "postalCode": "520251",
    "location": "Udo Eduok St.",
    "areadistrict": "Uyo Market",
    "citylga": "Uyo",
    "type": "Urban",
    "state": "Akwa Ibom"
  },
  {
    "postalCode": "520271",
    "location": "Udo Ekong St.",
    "areadistrict": "School Of Art and Science",
    "citylga": "Uyo",
    "type": "Urban",
    "state": "Akwa Ibom"
  },
  {
    "postalCode": "520251",
    "location": "Udo Ekong St.",
    "areadistrict": "Uyo Market",
    "citylga": "Uyo",
    "type": "Urban",
    "state": "Akwa Ibom"
  },
  {
    "postalCode": "520241",
    "location": "Udo Ekpo Inyang St.",
    "areadistrict": "Itiam Ikot Abia",
    "citylga": "Uyo",
    "type": "Urban",
    "state": "Akwa Ibom"
  },
  {
    "postalCode": "520261",
    "location": "Udo Obio St.",
    "areadistrict": "Iboko",
    "citylga": "Uyo",
    "type": "Urban",
    "state": "Akwa Ibom"
  },
  {
    "postalCode": "520231",
    "location": "Udo Obot St.",
    "areadistrict": "Housing Estate Ewet",
    "citylga": "Uyo",
    "type": "Urban",
    "state": "Akwa Ibom"
  },
  {
    "postalCode": "520241",
    "location": "Udo Ofong Ubo St.",
    "areadistrict": "Itiam Ikot Abia",
    "citylga": "Uyo",
    "type": "Urban",
    "state": "Akwa Ibom"
  },
  {
    "postalCode": "520211",
    "location": "Udo Otong Ubo st.",
    "areadistrict": "Faha Oku Akpon",
    "citylga": "Uyo",
    "type": "Urban",
    "state": "Akwa Ibom"
  },
  {
    "postalCode": "520211",
    "location": "Udo st.",
    "areadistrict": "Faha Oku Akpon",
    "citylga": "Uyo",
    "type": "Urban",
    "state": "Akwa Ibom"
  },
  {
    "postalCode": "520231",
    "location": "Udosien Uko St.",
    "areadistrict": "Housing Estate Ewet",
    "citylga": "Uyo",
    "type": "Urban",
    "state": "Akwa Ibom"
  },
  {
    "postalCode": "520251",
    "location": "Ukana Offot St.",
    "areadistrict": "Uyo Market",
    "citylga": "Uyo",
    "type": "Urban",
    "state": "Akwa Ibom"
  },
  {
    "postalCode": "520271",
    "location": "Uko Essiat Rd.",
    "areadistrict": "School Of Art and Science",
    "citylga": "Uyo",
    "type": "Urban",
    "state": "Akwa Ibom"
  },
  {
    "postalCode": "520211",
    "location": "Umoren st.",
    "areadistrict": "Faha Oku Akpon",
    "citylga": "Uyo",
    "type": "Urban",
    "state": "Akwa Ibom"
  },
  {
    "postalCode": "520241",
    "location": "Umuan St.",
    "areadistrict": "Itiam Ikot Abia",
    "citylga": "Uyo",
    "type": "Urban",
    "state": "Akwa Ibom"
  },
  {
    "postalCode": "520003",
    "location": "Uniuyo",
    "areadistrict": "",
    "citylga": "Uyo",
    "type": "Facility",
    "state": "Akwa Ibom"
  },
  {
    "postalCode": "520101",
    "location": "Use Atai",
    "areadistrict": "Offot",
    "citylga": "Uyo",
    "type": "Rural",
    "state": "Akwa Ibom"
  },
  {
    "postalCode": "520101",
    "location": "Use Ikot Ebio",
    "areadistrict": "Offot",
    "citylga": "Uyo",
    "type": "Rural",
    "state": "Akwa Ibom"
  },
  {
    "postalCode": "520101",
    "location": "Use Offot",
    "areadistrict": "Offot",
    "citylga": "Uyo",
    "type": "Rural",
    "state": "Akwa Ibom"
  },
  {
    "postalCode": "520101",
    "location": "Uyo Offot",
    "areadistrict": "Offot",
    "citylga": "Uyo",
    "type": "Rural",
    "state": "Akwa Ibom"
  },
  {
    "postalCode": "520261",
    "location": "William Bassey Rd.",
    "areadistrict": "Iboko",
    "citylga": "Uyo",
    "type": "Urban",
    "state": "Akwa Ibom"
  },
  {
    "postalCode": "520241",
    "location": "Yoruba Rd.",
    "areadistrict": "Itiam Ikot Abia",
    "citylga": "Uyo",
    "type": "Urban",
    "state": "Akwa Ibom"
  }
]